{
  "type": "FeatureCollection",
  "features": [
    {
      "type": "Feature",
      "properties": {
        "norad_id": 28899,
        "name": "INMARSAT 4-F2 (SOUTHPAN/PRN 122)",
        "group": "gnss",
        "lat": -3.8895408258873143,
        "lon": -10.013053848825995,
        "alt_km": 35788.35743986533,
        "timestamp": "2025-12-02T08:59:32.955991+00:00",
        "meta_object_name": "INMARSAT 4-F2 (SOUTHPAN/PRN 122)",
        "meta_object_id": "2005-044A",
        "meta_epoch": "2025-12-01T23:03:25.199712",
        "meta_mean_motion": 1.00273188,
        "meta_eccentricity": 0.0003522,
        "meta_inclination": 4.8373,
        "meta_ra_of_asc_node": 43.6514,
        "meta_arg_of_pericenter": 208.1176,
        "meta_mean_anomaly": 308.6606,
        "meta_ephemeris_type": 0,
        "meta_classification_type": "U",
        "meta_norad_cat_id": 28899,
        "meta_element_set_no": 999,
        "meta_rev_at_epoch": 7354,
        "meta_bstar": 0,
        "meta_mean_motion_dot": -2.41e-06,
        "meta_mean_motion_ddot": 0,
        "tle_line1": "1 28899U 05044A   25335.96070833 -.00000241  00000+0  00000+0 0  9999",
        "tle_line2": "2 28899   4.8373  43.6514 0003522 208.1176 308.6606  1.00273188 73541"
      },
      "geometry": {
        "type": "Point",
        "coordinates": [
          -10.013053848825995,
          -3.8895408258873143
        ]
      }
    },
    {
      "type": "Feature",
      "properties": {
        "norad_id": 29486,
        "name": "GPS BIIRM-2 (PRN 31)",
        "group": "gnss",
        "lat": -39.03074063908738,
        "lon": 14.23435305079847,
        "alt_km": 20472.92869642401,
        "timestamp": "2025-12-02T08:59:32.956005+00:00",
        "meta_object_name": "GPS BIIRM-2 (PRN 31)",
        "meta_object_id": "2006-042A",
        "meta_epoch": "2025-12-01T13:45:36.640800",
        "meta_mean_motion": 2.00554492,
        "meta_eccentricity": 0.01073693,
        "meta_inclination": 54.6925,
        "meta_ra_of_asc_node": 159.184,
        "meta_arg_of_pericenter": 51.6942,
        "meta_mean_anomaly": 320.2253,
        "meta_ephemeris_type": 0,
        "meta_classification_type": "U",
        "meta_norad_cat_id": 29486,
        "meta_element_set_no": 999,
        "meta_rev_at_epoch": 14043,
        "meta_bstar": 0,
        "meta_mean_motion_dot": 1.26e-06,
        "meta_mean_motion_ddot": 0,
        "tle_line1": "1 29486U 06042A   25335.57334075  .00000126  00000+0  00000+0 0  9990",
        "tle_line2": "2 29486  54.6925 159.1840 0107369  51.6942 320.2253  2.00554492140433"
      },
      "geometry": {
        "type": "Point",
        "coordinates": [
          14.23435305079847,
          -39.03074063908738
        ]
      }
    },
    {
      "type": "Feature",
      "properties": {
        "norad_id": 29601,
        "name": "GPS BIIRM-3 (PRN 12)",
        "group": "gnss",
        "lat": -51.53333212262917,
        "lon": 159.96328651384835,
        "alt_km": 20405.234571323137,
        "timestamp": "2025-12-02T08:59:32.956036+00:00",
        "meta_object_name": "GPS BIIRM-3 (PRN 12)",
        "meta_object_id": "2006-052A",
        "meta_epoch": "2025-11-30T23:32:34.416960",
        "meta_mean_motion": 2.00572625,
        "meta_eccentricity": 0.0087464,
        "meta_inclination": 54.9732,
        "meta_ra_of_asc_node": 221.865,
        "meta_arg_of_pericenter": 87.3176,
        "meta_mean_anomaly": 273.7605,
        "meta_ephemeris_type": 0,
        "meta_classification_type": "U",
        "meta_norad_cat_id": 29601,
        "meta_element_set_no": 999,
        "meta_rev_at_epoch": 13943,
        "meta_bstar": 0,
        "meta_mean_motion_dot": 4.7e-07,
        "meta_mean_motion_ddot": 0,
        "tle_line1": "1 29601U 06052A   25334.98095390  .00000047  00000+0  00000+0 0  9990",
        "tle_line2": "2 29601  54.9732 221.8650 0087464  87.3176 273.7605  2.00572625139434"
      },
      "geometry": {
        "type": "Point",
        "coordinates": [
          159.96328651384835,
          -51.53333212262917
        ]
      }
    },
    {
      "type": "Feature",
      "properties": {
        "norad_id": 32260,
        "name": "GPS BIIRM-4 (PRN 15)",
        "group": "gnss",
        "lat": 48.19606502558009,
        "lon": 142.63806535875463,
        "alt_km": 19760.87337054581,
        "timestamp": "2025-12-02T08:59:32.956051+00:00",
        "meta_object_name": "GPS BIIRM-4 (PRN 15)",
        "meta_object_id": "2007-047A",
        "meta_epoch": "2025-12-01T06:52:15.674592",
        "meta_mean_motion": 2.00564902,
        "meta_eccentricity": 0.0164402,
        "meta_inclination": 53.9473,
        "meta_ra_of_asc_node": 88.2317,
        "meta_arg_of_pericenter": 85.1099,
        "meta_mean_anomaly": 276.7472,
        "meta_ephemeris_type": 0,
        "meta_classification_type": "U",
        "meta_norad_cat_id": 32260,
        "meta_element_set_no": 999,
        "meta_rev_at_epoch": 13284,
        "meta_bstar": 0,
        "meta_mean_motion_dot": -3e-08,
        "meta_mean_motion_ddot": 0,
        "tle_line1": "1 32260U 07047A   25335.28629253 -.00000003  00000+0  00000+0 0  9998",
        "tle_line2": "2 32260  53.9473  88.2317 0164402  85.1099 276.7472  2.00564902132845"
      },
      "geometry": {
        "type": "Point",
        "coordinates": [
          142.63806535875463,
          48.19606502558009
        ]
      }
    },
    {
      "type": "Feature",
      "properties": {
        "norad_id": 32275,
        "name": "COSMOS 2433 (720)",
        "group": "gnss",
        "lat": 52.09008579888628,
        "lon": -1.957323510310529,
        "alt_km": 19137.88048142488,
        "timestamp": "2025-12-02T08:59:32.956064+00:00",
        "meta_object_name": "COSMOS 2433 (720)",
        "meta_object_id": "2007-052A",
        "meta_epoch": "2025-11-30T21:19:42.713184",
        "meta_mean_motion": 2.13103931,
        "meta_eccentricity": 0.0005603,
        "meta_inclination": 65.6896,
        "meta_ra_of_asc_node": 322.6041,
        "meta_arg_of_pericenter": 251.7328,
        "meta_mean_anomaly": 108.2221,
        "meta_ephemeris_type": 0,
        "meta_classification_type": "U",
        "meta_norad_cat_id": 32275,
        "meta_element_set_no": 999,
        "meta_rev_at_epoch": 14083,
        "meta_bstar": 0,
        "meta_mean_motion_dot": -2.3e-07,
        "meta_mean_motion_ddot": 0,
        "tle_line1": "1 32275U 07052A   25334.88868881 -.00000023  00000+0  00000+0 0  9999",
        "tle_line2": "2 32275  65.6896 322.6041 0005603 251.7328 108.2221  2.13103931140836"
      },
      "geometry": {
        "type": "Point",
        "coordinates": [
          -1.957323510310529,
          52.09008579888628
        ]
      }
    },
    {
      "type": "Feature",
      "properties": {
        "norad_id": 32276,
        "name": "COSMOS 2432 (719)",
        "group": "gnss",
        "lat": 4.1505565335158865,
        "lon": -35.44799942916824,
        "alt_km": 19112.785636805656,
        "timestamp": "2025-12-02T08:59:32.956077+00:00",
        "meta_object_name": "COSMOS 2432 (719)",
        "meta_object_id": "2007-052B",
        "meta_epoch": "2025-12-01T01:47:57.960960",
        "meta_mean_motion": 2.13103067,
        "meta_eccentricity": 0.00112256,
        "meta_inclination": 65.7054,
        "meta_ra_of_asc_node": 322.7218,
        "meta_arg_of_pericenter": 311.1678,
        "meta_mean_anomaly": 136.2023,
        "meta_ephemeris_type": 0,
        "meta_classification_type": "U",
        "meta_norad_cat_id": 32276,
        "meta_element_set_no": 999,
        "meta_rev_at_epoch": 14086,
        "meta_bstar": 0,
        "meta_mean_motion_dot": -2.4e-07,
        "meta_mean_motion_ddot": 0,
        "tle_line1": "1 32276U 07052B   25335.07497640 -.00000024  00000+0  00000+0 0  9994",
        "tle_line2": "2 32276  65.7054 322.7218 0011225 311.1678 136.2023  2.13103067140861"
      },
      "geometry": {
        "type": "Point",
        "coordinates": [
          -35.44799942916824,
          4.1505565335158865
        ]
      }
    },
    {
      "type": "Feature",
      "properties": {
        "norad_id": 32384,
        "name": "GPS BIIRM-5 (PRN 29)",
        "group": "gnss",
        "lat": -13.735835193360296,
        "lon": 111.82017725130352,
        "alt_km": 20111.94528650145,
        "timestamp": "2025-12-02T08:59:32.956089+00:00",
        "meta_object_name": "GPS BIIRM-5 (PRN 29)",
        "meta_object_id": "2007-062A",
        "meta_epoch": "2025-11-30T01:46:38.777952",
        "meta_mean_motion": 2.0057652,
        "meta_eccentricity": 0.00321996,
        "meta_inclination": 55.1935,
        "meta_ra_of_asc_node": 282.1541,
        "meta_arg_of_pericenter": 162.9568,
        "meta_mean_anomaly": 172.309,
        "meta_ephemeris_type": 0,
        "meta_classification_type": "U",
        "meta_norad_cat_id": 32384,
        "meta_element_set_no": 999,
        "meta_rev_at_epoch": 13151,
        "meta_bstar": 0,
        "meta_mean_motion_dot": -3.9e-07,
        "meta_mean_motion_ddot": 0,
        "tle_line1": "1 32384U 07062A   25334.07405993 -.00000039  00000+0  00000+0 0  9990",
        "tle_line2": "2 32384  55.1935 282.1541 0032199 162.9568 172.3090  2.00576520131514"
      },
      "geometry": {
        "type": "Point",
        "coordinates": [
          111.82017725130352,
          -13.735835193360296
        ]
      }
    }
  ]
}